     2.100          NAVIGATION                              RINEX VERSION / TYPE
fic2rin                                 09/26/2017 00:08:46 PGM / RUN BY / DATE
                                                            END OF HEADER
29 17  9 25  4  0  0.0  .558920204639D-03 -.454747350886D-11  .000000000000D+00
     .970000000000D+02 -.327187500000D+02  .384230290448D-08 -.352458073293D+00
    -.179186463356D-05  .490051577799D-03  .977329909801D-05  .515356845665D+04
     .100800000000D+06  .130385160446D-07  .643436955789D+00  .242143869400D-07
     .982227326328D+00  .202156250000D+03  .924549542788D+00 -.771139263903D-08
     .153577825704D-10  .100000000000D+01  .196800000000D+04  .000000000000D+00
     .340000000000D+01  .000000000000D+00 -.102445483208D-07  .609000000000D+03
     .936060000000D+05  .400000000000D+01
30 17  9 25  4  0  0.0  .138587784022D-03 -.216004991671D-11  .000000000000D+00
     .880000000000D+02  .776562500000D+02  .514199989922D-08  .181816440127D+01
     .412017107010D-05  .304091337603D-02  .559166073799D-05  .515362821388D+04
     .100800000000D+06  .540167093277D-07 -.145178621919D+01  .745058059692D-07
     .946423253367D+00  .264781250000D+03 -.305419209049D+01 -.852428364206D-08
     .186436337250D-09  .100000000000D+01  .196800000000D+04  .000000000000D+00
     .240000000000D+01  .000000000000D+00  .372529029846D-08  .600000000000D+03
     .936060000000D+05  .400000000000D+01
31 17  9 25  4  0  0.0  .173066742718D-03 -.250111042988D-11  .000000000000D+00
     .190000000000D+03  .728437500000D+02  .466912305915D-08  .162468769799D+01
     .399723649025D-05  .854496716056D-02  .511296093464D-05  .515378775215D+04
     .100800000000D+06  .875443220139D-07 -.147749476763D+01  .102445483208D-06
     .965443959165D+00  .281062500000D+03 -.239763257228D+00 -.822355682986D-08
     .246438836595D-10  .100000000000D+01  .196800000000D+04  .000000000000D+00
     .340000000000D+01  .000000000000D+00 -.135041773319D-07  .446000000000D+03
     .936060000000D+05  .400000000000D+01
32 17  9 25  4  0  0.0 -.504784286022D-03 -.534328137292D-11  .000000000000D+00
     .190000000000D+03  .277812500000D+02  .448875840338D-08 -.100323279503D+01
     .150315463543D-05  .141919113230D-02  .104159116745D-04  .515376957893D+04
     .100800000000D+06  .335276126862D-07 -.256385177044D+01  .391155481339D-07
     .957955560934D+00  .177375000000D+03 -.256178467159D+01 -.793390190743D-08
    -.457161899771D-10  .100000000000D+01  .196800000000D+04  .000000000000D+00
     .240000000000D+01  .000000000000D+00  .931322574615D-09  .446000000000D+03
     .936060000000D+05  .400000000000D+01
31 17  9 25  3 59 44.0  .173064414412D-03 -.250111042988D-11  .000000000000D+00
     .850000000000D+02  .728437500000D+02  .466876590141D-08  .162235425295D+01
     .399723649025D-05  .854496669490D-02  .511296093464D-05  .515378775024D+04
     .100784000000D+06  .875443220139D-07 -.147749462427D+01  .102445483208D-06
     .965443975257D+00  .281062500000D+03 -.239763371335D+00 -.822355682986D-08
     .246438836595D-10  .100000000000D+01  .196800000000D+04  .000000000000D+00
     .240000000000D+01  .000000000000D+00 -.135041773319D-07  .597000000000D+03
     .997560000000D+05  .400000000000D+01
29 17  9 25  3 59 44.0  .558919738978D-03 -.454747350886D-11  .000000000000D+00
     .179000000000D+03 -.327187500000D+02  .384230290448D-08 -.354790716652D+00
    -.179186463356D-05  .490051927045D-03  .977516174316D-05  .515356846809D+04
     .100784000000D+06  .130385160446D-07  .643437068434D+00  .242143869400D-07
     .982227326328D+00  .202156250000D+03  .924548259809D+00 -.771139263903D-08
     .153577825704D-10  .100000000000D+01  .196800000000D+04  .000000000000D+00
     .240000000000D+01  .000000000000D+00 -.102445483208D-07  .691000000000D+03
     .997860000000D+05  .400000000000D+01
29 17  9 25  5 59 44.0  .558887142688D-03 -.454747350886D-11  .000000000000D+00
     .180000000000D+03 -.446250000000D+02  .389373361821D-08  .695787868392D+00
    -.236183404922D-05  .488231773488D-03  .949576497078D-05  .515356503105D+04
     .107984000000D+06 -.409781932831D-07  .643381860831D+00  .372529029846D-08
     .982227370215D+00  .207937500000D+03  .924211339535D+00 -.768889170177D-08
    -.267868300647D-10  .100000000000D+01  .196800000000D+04  .000000000000D+00
     .240000000000D+01  .000000000000D+00 -.102445483208D-07  .692000000000D+03
     .100806000000D+06  .400000000000D+01
31 17  9 25  5 59 44.0  .173046253622D-03 -.250111042988D-11  .000000000000D+00
     .860000000000D+02  .675000000000D+02  .461090634847D-08  .267232497066D+01
     .363402068615D-05  .854427926242D-02  .569410622120D-05  .515379033661D+04
     .107984000000D+06 -.171363353729D-06 -.147755462439D+01  .163912773132D-06
     .965445022706D+00  .272593750000D+03 -.239622248017D+00 -.811890961375D-08
     .212508851847D-09  .100000000000D+01  .196800000000D+04  .000000000000D+00
     .240000000000D+01  .000000000000D+00 -.135041773319D-07  .598000000000D+03
     .100806000000D+06  .400000000000D+01
 1 17  9 25  6  0  0.0 -.240653753281D-05 -.568434188608D-12  .000000000000D+00
     .190000000000D+03  .163125000000D+02  .435018120251D-08 -.276231162036D+01
     .858679413795D-06  .704227492679D-02  .736862421036D-05  .515367793083D+04
     .108000000000D+06 -.130385160446D-07  .163768992516D+01 -.745058059692D-08
     .968283410011D+00  .240875000000D+03  .626211461135D+00 -.790925802377D-08
     .374301305437D-09  .100000000000D+01  .196800000000D+04  .000000000000D+00
     .240000000000D+01  .000000000000D+00  .558793544769D-08  .446000000000D+03
     .100806000000D+06  .400000000000D+01
 2 17  9 25  6  0  0.0  .322057865560D-03 -.920863385545D-11  .000000000000D+00
     .860000000000D+02  .787500000000D+01  .474234039466D-08 -.235702228678D+01
     .488013029099D-06  .170902453829D-01  .747479498386D-05  .515358695984D+04
     .108000000000D+06  .219792127609D-06  .158172351146D+01 -.856816768646D-07
     .947265289996D+00  .227468750000D+03 -.195384131804D+01 -.787211361942D-08
     .438232539859D-09  .100000000000D+01  .196800000000D+04  .000000000000D+00
     .240000000000D+01  .000000000000D+00 -.204890966415D-07  .598000000000D+03
     .100806000000D+06  .400000000000D+01
 3 17  9 25  6  0  0.0 -.638733617961D-04  .443378667114D-11  .000000000000D+00
     .100000000000D+01 -.291562500000D+02  .461912097636D-08  .255533173409D+01
    -.147335231304D-05  .100783293601D-02  .677630305290D-05  .515364888573D+04
     .108000000000D+06  .130385160446D-07  .268051318648D+01 -.745058059692D-08
     .960439379321D+00  .247312500000D+03  .466289244624D+00 -.812319550656D-08
    -.174650132022D-09  .100000000000D+01  .196800000000D+04  .000000000000D+00
     .240000000000D+01  .000000000000D+00  .232830643654D-08  .513000000000D+03
     .100806000000D+06  .400000000000D+01
 4 17  9 25  6  0  0.0  .331224873662D-04  .750333128963D-11  .000000000000D+00
     .760000000000D+02 -.449375000000D+02  .455376111100D-08 -.331262969449D+00
    -.244751572609D-05  .123595093610D-01  .889599323273D-05  .515366960144D+04
     .108000000000D+06  .119209289551D-06  .490705348830D+00  .160187482834D-06
     .957239472775D+00  .205375000000D+03  .441415745915D+00 -.823355724642D-08
    -.149291932894D-09  .100000000000D+01  .196800000000D+04  .000000000000D+00
     .240000000000D+01  .630000000000D+02 -.558793544769D-08  .588000000000D+03
     .100806000000D+06  .400000000000D+01
 5 17  9 25  6  0  0.0 -.282311812043D-04  .136424205266D-11  .000000000000D+00
     .188000000000D+03 -.250000000000D+02  .497735018376D-08  .166510295456D+00
    -.118836760521D-05  .521481910255D-02  .635907053947D-05  .515355589867D+04
     .108000000000D+06  .540167093277D-07  .266205049030D+01  .108033418655D-06
     .947360607886D+00  .248281250000D+03  .591149836655D+00 -.834784772137D-08
    -.127148153374D-09  .100000000000D+01  .196800000000D+04  .000000000000D+00
     .240000000000D+01  .000000000000D+00 -.107102096081D-07  .444000000000D+03
     .100806000000D+06  .400000000000D+01
 6 17  9 25  6  0  0.0  .400034245104D-03  .284217094304D-11  .000000000000D+00
     .000000000000D+00  .993750000000D+01  .444232789793D-08 -.256972900579D+01
     .482425093651D-06  .558492494747D-03  .769272446632D-05  .515374947929D+04
     .108000000000D+06  .949949026108D-07  .162932865052D+01 -.186264514923D-08
     .968037269655D+00  .238156250000D+03 -.115222549351D+01 -.798640409436D-08
     .289654922433D-09  .100000000000D+01  .196800000000D+04  .000000000000D+00
     .240000000000D+01  .000000000000D+00  .465661287308D-08  .512000000000D+03
     .100806000000D+06  .400000000000D+01
 7 17  9 25  6  0  0.0  .301689375192D-03 -.488853402203D-11  .000000000000D+00
     .300000000000D+01  .835312500000D+02  .463126433932D-08  .288954194219D+01
     .425428152084D-05  .110589443939D-01  .567920506001D-05  .515372443581D+04
     .108000000000D+06 -.335276126862D-07 -.148902760185D+01 -.137835741043D-06
     .960728817663D+00  .273500000000D+03 -.255615605478D+01 -.806926468869D-08
     .257153568621D-09  .100000000000D+01  .196800000000D+04  .000000000000D+00
     .240000000000D+01  .000000000000D+00 -.111758708954D-07  .515000000000D+03
     .100806000000D+06  .400000000000D+01
 8 17  9 25  6  0  0.0 -.747130252421D-04 -.136424205266D-11  .000000000000D+00
     .100000000000D+01 -.392500000000D+02  .420374653149D-08 -.422969481234D-01
    -.210478901863D-05  .262960197870D-02  .999122858047D-05  .515369610214D+04
     .108000000000D+06  .260770320892D-07  .573931225031D+00 -.260770320892D-07
     .967800041396D+00  .193843750000D+03 -.629551082210D+00 -.790997233924D-08
    -.885751180806D-10  .100000000000D+01  .196800000000D+04  .000000000000D+00
     .240000000000D+01  .000000000000D+00  .558793544769D-08  .513000000000D+03
     .100806000000D+06  .400000000000D+01
